[{"OBJECT_NAME":"STARLINK-3996","OBJECT_ID":"2022-052V","EPOCH":"2026-03-09T22:39:01.701216","MEAN_MOTION":15.0883833,"ECCENTRICITY":0.0001327,"INCLINATION":53.2174,"RA_OF_ASC_NODE":267.9799,"ARG_OF_PERICENTER":85.0569,"MEAN_ANOMALY":275.0575,"EPHEMERIS_TYPE":0,"CLASSIFICATION_TYPE":"U","NORAD_CAT_ID":52617,"ELEMENT_SET_NO":999,"REV_AT_EPOCH":21102,"BSTAR":4.6699496e-5,"MEAN_MOTION_DOT":4.55e-6,"MEAN_MOTION_DDOT":0},{"OBJECT_NAME":"LEMUR-2-UNTITLED-SC","OBJECT_ID":"2025-061A","EPOCH":"2026-03-09T21:24:38.388672","MEAN_MOTION":15.12695529,"ECCENTRICITY":0.00173727,"INCLINATION":97.5556,"RA_OF_ASC_NODE":45.0864,"ARG_OF_PERICENTER":245.603,"MEAN_ANOMALY":114.3388,"EPHEMERIS_TYPE":0,"CLASSIFICATION_TYPE":"U","NORAD_CAT_ID":63351,"ELEMENT_SET_NO":999,"REV_AT_EPOCH":5257,"BSTAR":0.00033295729,"MEAN_MOTION_DOT":5.783e-5,"MEAN_MOTION_DDOT":0}]
